[{"OBJECT_NAME":"JILIN-1 GAOFEN 3B","OBJECT_ID":"2020-065A","EPOCH":"2026-03-09T16:59:49.888320","MEAN_MOTION":15.79810651,"ECCENTRICITY":0.00034182,"INCLINATION":97.2369,"RA_OF_ASC_NODE":126.2587,"ARG_OF_PERICENTER":147.1164,"MEAN_ANOMALY":213.0317,"EPHEMERIS_TYPE":0,"CLASSIFICATION_TYPE":"U","NORAD_CAT_ID":46454,"ELEMENT_SET_NO":999,"REV_AT_EPOCH":30472,"BSTAR":0.0009879268,"MEAN_MOTION_DOT":0.00184567,"MEAN_MOTION_DDOT":0},{"OBJECT_NAME":"STARLINK-1680","OBJECT_ID":"2020-070AC","EPOCH":"2026-03-10T00:00:02.999808","MEAN_MOTION":15.76401356,"ECCENTRICITY":0.00075058,"INCLINATION":53.0447,"RA_OF_ASC_NODE":107.962,"ARG_OF_PERICENTER":15.0582,"MEAN_ANOMALY":219.3714,"EPHEMERIS_TYPE":0,"CLASSIFICATION_TYPE":"U","NORAD_CAT_ID":46558,"ELEMENT_SET_NO":999,"REV_AT_EPOCH":596,"BSTAR":0.0012210481,"MEAN_MOTION_DOT":0.00201352,"MEAN_MOTION_DDOT":0}]
